name,website,city,street,amenity,email,region,phone,place,name:en,opening_hours,latitude,longitude
Музеј на современата уметност,https://msu.mk/home/,Скопје,Самоилова,museum,msu-info@msuskopje.org.mk,,+389 2 3117734,,Contemporary Art Museum of Macedonia,Tu-Sa 10:00-15:00; Su 09:00-13:00,42.0040225,21.4329048
Американско катче Македонија,https://www.acmacedonia.org/,Скопје,Булевар Гоце Делчев,library,acskopje@yahoo.com,,+389 2 3120020,,American Corner Macedonia,Mo-Fr 10:00-20:00; Sa 11:00-16:00,41.9980573,21.4397823
Спомен куќа на Мајка Тереза,http://www.memorialhouseofmotherteresa.org/,Скопје,Македонија,museum,info@memorialhouseofmotherteresa.org,,+389 2 3290674,,Memorial House of Mother Teresa,"Mo-Fr 09:00-20:00, Sa-Su 09:00-14:00",41.9938305,21.430859
Музеј на македонската борба,http://mmb.org.mk/w/,Скопје,11 Март,museum,mmb@mmb.org.mk,,+389 2 3256 667,,Museum of the Macedonian struggle,Tu-Su 10:00-18:00,41.9979845,21.433132
Национална галерија „Даут-пашин амам“,https://nationalgallery.mk/,Скопје,,museum,contact@nationalgallery.mk,,+389 2 3133102,,Daut Pasha Hamam National Gallery,Tu-Su 10:00-18:00,41.9987239,21.4357236
Меморијален центар на холокаустот на Евреите од Македонија,https://www.holocaustfund.org/,Скопје,Самоилова,museum,info@holocaustfund.org.mk,,+389 2 3122697,,Holocaust Memorial Center for the Jews of Macedonia,,41.9984656,21.4333832
Наум Наумоски-Борче,,Крушево,Коча Миленку,library,valentintaseski@gmail.com;nn.borce@yahoo.com,,+38948477101;+38976265605,,Naum Naumoski-Borche,Mo-Sa 08:30-16:30,41.3669471,21.2488978
Гралска библиотека браќа миладиновци Скопје,https://www.gbsk.mk/,Скопје,Булевар Партизански Одреди,library,biblmiladinovci@gbiblsk.edu.mk,,+389 2 3162 544,,,,41.9997606,21.4201783
Galerija RA,,Скопје,Војвода Васил Чакаларов,museum,galerija.ra@gmail.com,,+389075435402,,Gallery RA,Mo-Sa 10:00-20:00,41.9989569,21.3865879
Стоби,http://www.stobi.mk,Неготино,,archaeological_site,contact@stobi.mk,,+389 75 210 752,,Stobi,Mo-Sa 08:00-16:00,41.5520256,21.9734409
Етноресторан „Марков манастир“ - Марио,https://regentclub.com.mk/,Скопје,,monastery,,,+38978341484,,"Etnorestoran ""Marko Manastir"" - Mario","Tu-Su 11:00-23:00, Mo Closed",41.9069237,21.4138473
Музеј на Град Скопје,http://www.mgs.org.mk/,Скопје,,museum,,,+389 2 3114742,,Museum of the City of Skopje,,41.9909145,21.4290087
Музеј,https://www.muzejprilep.org.mk,Прилеп,Александар Македонски,museum,,,,,Museum,,41.342827,21.5593935
Музеј на Илинденското востание и Крушевската Република,,Крушево,Димитар Бербероски - Таќа Бербер,museum,,,+38970619597;+38970356621,,Museum of the Ilinden Uprising and the Republic of Krushevo,,41.3690527,21.2453034
Бигорски Манастир,https://bigorski.org.mk,Дебар,,monastery,info@bigorski.org.mk,,+389 (0) 42 333 399,,,,41.6207798,20.6094915
Куќа на Робевци,http://muzejohrid.mk/en/house-of-robev-family,Охрид,Цар Самоил,museum,,,,,Robev Family House,Tu-Su 09:00-14:00,41.112361,20.7961416
Леарница,,Крушево,Тома Никлев,museum,,,+38970356621;+38975202123,,Foundry,,41.3721718,21.2466584
Библиотека „Браќа Миладиновци“ - Карпош,,Скопје,Иван Аговски,library,,,,,"Library ""Miladinovci Brothers"" - Karposh","Mo-Fr 08:00-19:00; Sa,Su off",42.0027424,21.4120526
Археолошки музеј на Македонија,,Скопје,,museum,,,,,Archaeological Museum of Macedonia,Tu-Su 10:00-18:00,41.9968594,21.4344917
Музеј на Битола,,Битола,Св. Климент Охридски,museum,,,,,Museum of Bitola,,41.023837,21.3356596
Дом на култура 25 Мај,,Македонски Брод,Партизанска,library,,,,,Dom Na Kultura 25 Maj,,41.5097744,21.2168495
Меморијален музеј Народен херој Кузман Јосифоски-Питу,,Прилеп,Мара Јосифоска-Ѓурѓа,museum,,,,,People's hero Kuzman Josifoski-Pitu Memorial museum,,41.3425255,21.5597309
Национална и универзитетска библиотека,,Скопје,Булевар Гоце Делчев,library,,,,,National and University Library,,41.9979496,21.439345
Борка Талески-Модерното,,Прилеп,Кузман Јосифоски-Питу,library,,,,,Borka Taleski-Modernoto,,41.3455026,21.5504039
Градска библиотека Искра,,Кочани,Маршал Тито,library,,,,,Gradska biblioteka Iskra,,41.9194025,22.4099434
Музеј на Македонија,,Скопје,Прохор Пчински,museum,,,,,Museum of Macedonia,,42.0026676,21.4362139
Германска читалница,,Скопје,Булевар Гоце Делчев,library,,,,,,"Mo, We, Fr 11:00-14:30; Tu, Th 12:00-18:00; Sa[1] 11:00-15:00",41.9981313,21.4393671
Црква Свети Никола - Аеродром,,Скопје,Булевар Србија,church,,,,,Saint Nicholas,,41.9837948,21.4714523
Црква Свети Димитриј,,Крива Паланка,Jane Sandanski,church,,,,,Chruch St. Dimitrij,,42.2022937,22.3357501
Католичка црква Пресвето срце Исусово,,Скопје,Петар Попарсов,church,,,,,Sacred Heart of Jesus,,41.9949542,21.4177825
НУ Завод за заштита на спомениците на културата и Музеј-Охрид,http://muzejohrid.mk/en/,Охрид,Боро Шаин,museum,,,,,Institute for Protection of Monuments of Culture and Museum-Ohrid,,41.1131718,20.7945858
Евангелско Методистичка Црква,http://emc.mk/%D0%B7%D0%B0-%D0%BD%D0%B0%D1%81/,Струмица,Загребска,church,,,,,United Methodist Church,,41.4373198,22.6353267
Црква „Св. Апостоли Петар и Павле“,,Скопје,Горно Лисиче,church,,,,,Saints Peter and Paul the Apostles Church,,41.9644772,21.4936632
Манастир Св. Харалампие,,Кочани,,monastery,,,,,Saint Charalambos monastery,,41.9865034,22.4819287
Цоцев Камен,,Кратово,,archaeological_site,,,,locality,Cocev Kamen,,42.0836218,21.9862589
City Museum,,Крива Паланка,Sveti Joakim Osogovski,museum,,,,,,,42.2020133,22.3348959
Варошки Манастир,,Прилеп,,monastery,,,,,Monastery of Varosh,Mo-Sa 07:00-16:00,41.3602308,21.5342465
Хотел Манастир Св. Јоаким Осоговски,,Крива Паланка,,monastery,,,+38976499599,,Hotel Manastir St. Joakim Osogovski,,42.2092075,22.3628114
Манастир Св. Пантелејмон,,Скопје,,monastery,,,,,Monastery Sv. Pantelejmon,,41.976875,21.3744835
Манастириште,,Крушево,,monastery,,,,locality,Manastirishte,,41.3342536,21.2944459
Св. Троица,,Штип,Партизанска,monastery,,,,,,,41.764959,22.1992659
Музеј на град Берово,http://www.berovo.gov.mk/index.php?option=com_content&view=article&id=76&Itemid=117,Берово,,museum,,,,,Berovo Town Museum,,41.7077548,22.8566138
Природонаучен Музеј,,Скопје,,museum,,,,,Macedonian Museum of Natural History,Tu-Su 09:00-16:00,42.005709,21.4174425
Манастирец,,Македонски Брод,,monastery,,,,village,Manastirec,,41.615915,21.20585
Манастирско Доленци,,Кичево,,monastery,,,,village,Manastirsko Dolenci,,41.4553299,20.9383949
Архив на град Скопје,,Скопје,Московска,library,,,,,Skopje City Archives,,42.0030932,21.3907447
Насока: Музеј на Современа Уметност кон Островска,,Скопје,,museum,,,,,Direction: Museum of Modern Art to Ostrovska,Mo-Su 09:40-13:45,41.991065,21.4608009
Горна Бела Црква,,Ресен,,church,,,,village,Gorna Bela Crkva,,41.052604,21.0270859
Долна Бела Црква,,Ресен,,church,,,,village,Dolna Bela Crkva,,41.0407483,21.0530213
Манастир,,Прилеп,,monastery,,,,village,Manastir,,41.1665147,21.7278091
"Св. Кирил и Методиј,",,Штип,Крушевска Република,monastery,,,,,,,41.7584182,22.2049297
Бела Црква,,Крушево,,church,,,,village,Bela Crkva,,41.2802009,21.3465334
Насока: Островска кон Музеј на Современа Уметност,,Скопје,,museum,,,,,Direction: Ostrovska to Museum of Modern Art,Mo-Su 09:00-13:05,41.9911049,21.460762
Црква „Свети Илија„,,Охрид,,church,,,,,Church of St. Elijah,,41.1827523,20.7990502
Залив на Коските,,Охрид,,museum,,,,,Bay of Bones,Tu-Su 09:00-16:15,40.9943571,20.798135
Црква,,Прилеп,,church,,,,locality,Crkva,,41.3094886,21.5148524
Спомен-куќа на Татарчеви,,Ресен,,museum,,,,,Tatarchev House,,41.0883715,21.0138121
Црква Св. Кирил и Методиј и Св. Бенедикт,,Охрид,Партизанска,church,,,,,,,41.1109674,20.8047653
Евангелска црква,,Скопје,Рузвелтова,church,,,,,,,41.9991208,21.4130556
Црква Св. Димитриј,,Скопје,,church,,,,,Church of St. Demetrius,,41.998476,21.4343719
Црква „Свети Спас“,,Охрид,,church,,,+389 77 899 580,,,,41.1817025,20.7932588
Моклишки Манастир,,Кавадарци,,monastery,,,,,Monastery of Moklishte,,41.3849637,22.0371547
Куќата на Ѓошеви,,Прилеп,,archaeological_site,,,,,House of Gjoshev,,41.3588123,21.5329048
Вепрчански Манастир,,Прилеп,,monastery,,,,,Monastery of Veprchani,,41.2710192,21.7632365
Никодински Манастир,,Прилеп,,monastery,,,,,Monastery of Nikodin,,41.4382231,21.7432732
Чанишки Манастир,,Прилеп,,monastery,,,,,Monastery of Chanishte,,41.1587114,21.6864086
Северен Пештански Манастир,,Прилеп,,monastery,,,,,North Peshtani's Monastery,,41.2865774,21.6704685
Источен Пештански Манастир,,Прилеп,,monastery,,,,,East Peshtani's Monastery,,41.2753836,21.6619357
Манастир Трескавец,,Прилеп,,monastery,,,,,Monastery of Treskavec,,41.4038539,21.538239
Мариовски Манастир,,Прилеп,,monastery,,,,,Monastery of Mariovo,,41.165019,21.7263832
Дренски Манастир,,Прилеп,,monastery,,,,,Monastery of Dren,,41.3229712,21.7799888
Кокренски Манастир,,Прилеп,,monastery,,,,,Monastery of Kokre,,41.2928482,21.6345729
Мучеинци,,Демир Хисар,,archaeological_site,,,,,Mucheinci,,41.2017673,21.4000686
Волковски Манастир,,Прилеп,,monastery,,,,,Monastery of Volkovo,,41.304366,21.5658789
Тројачки Манастир,,Прилеп,,monastery,,,,,Monastery of Trojaci,,41.3666135,21.7406418
Врбоечки Манастир,,Крушево,,monastery,,,,,Monastery of Vrboec,,41.3346757,21.2937899
Спомен-дом Блаже Конески,,Прилеп,,museum,,,,,Blazhe Koneski Memorial House,,41.4492955,21.5584325
Рождество на Пресвета Богородица,,Ресен,,monastery,,,,,Nativity of the Holy Mother of God,,40.9781132,21.1004642
Кошински Манастир,,Македонски Брод,,monastery,,,,,Monastery of Koshino,,41.4647099,21.293814
Мелнички Манастир,,Прилеп,,monastery,,,,,Monastery of Melnica,,41.1636934,21.7811163
Ропотовски Манастир,,Македонски Брод,,monastery,,,,,Monastery of Ropotovo,,41.46197,21.3755953
Стар Лешочки Манастир,,Тетово,,monastery,,,,,Old monastery of Leshok,,42.0702071,21.0270748
Нов Лешочки Манастир,,Тетово,,monastery,,,,,New monastery of Leshok,,42.0670071,21.0277394
Манастирска Река,,Ресен,,monastery,,,,,Manastirska Reka,,41.0470098,21.1644871
Бешишки Манастир,,Прилеп,,monastery,,,,,Monastery of Beshishte,,41.1161568,21.8048998
Локовски Манастир,,Дебар,,monastery,,,,,Monastery of Lokov,,41.3883737,20.656632
Локвенски Манастир,,Крушево,,monastery,,,,,Monastery of Lokveni,,41.4043464,21.2936021
Белополски Манастир,,Прилеп,,monastery,,,,,Monastery of Belo Pole,,41.413839,21.412587
Трстенички Манастир,,Крушево,,monastery,,,,,Monastery of Trstenik,,41.346308,21.2741608
Музеј на град Делчево,,Делчево,,museum,,,,,City Museum,,41.9664768,22.7729986
Св. Никола,,Македонски Брод,,archaeological_site,,,,,St. Nicholas,,41.5183903,21.3499992
Лисолајски Манастир,,Демир Хисар,,monastery,,,,,Monastery of Lisolaj,,41.1478465,21.3215278
Крклински Манастир,,Битола,,monastery,,,,,Monastery of Krklino,,41.0690873,21.3171552
Суводолски Манастир,,Демир Хисар,,monastery,,,,,Monastery of Suvodol,,41.2066775,21.2454152
Сопотнички Манастир,,Крушево,,monastery,,,,,Monastery of Sopotnica,,41.3138764,21.1466731
Смилевски Манастир,,Демир Хисар,,monastery,,,,,Monastery of Smilevo,,41.1706956,21.1062322
Слоештички Манастир,,Демир Хисар,,monastery,,,,,Monastery of Sloeshtica,,41.2848431,21.0921762
Старо Село,,Битола,,monastery,,,,,Staro Selo,,40.9633156,21.3507622
Добромировски Манастир,,Демир Хисар,,monastery,,,,,Monastery of Dobromirovo,,41.238575,21.1507339
Вардински Манастир,,Демир Хисар,,monastery,,,,,Monastery of Vardino,,41.2349484,21.2513595
Манастир Свети Ѓорѓи - Кнежино,,Кичево,,monastery,,,,,,,41.5162167,20.9215121
Небреговски Манастир,,Прилеп,,monastery,,,,,Monastery of Nebregovo,,41.4618481,21.5711316
Дреновчански Манастир,,Прилеп,,monastery,,,,,Monastery of Drenovci,,41.4731221,21.544353
Гостиражненски Манастир,,Македонски Брод,,monastery,,,,,Monastery of Gostirazhni,,41.5510956,21.440235
Ленишки Манастир,,Прилеп,,monastery,,,,,Monastery of Lenishte,,41.3582823,21.627288
Слепченски Манастир,,Демир Хисар,,monastery,,,,,Monastery of Slepche,,41.2265457,21.1509663
Журчански Манастир,,Крушево,,monastery,,,,,Monastery of Zhurche,,41.2961883,21.2532412
Велушински Манастир,,Битола,,monastery,,,,,Monastery of Velushina,,40.92782,21.3402743
Чагорски Манастир,,Демир Хисар,,monastery,,,,,Monastery of Chagor,,41.1910021,21.2568287
Будинаречки Манастир,,Битола,,monastery,,,,,Monastery of Budinarci,,41.0371433,21.7430909
Новачки Манастир,,Битола,,monastery,,,,,Monastery of Novaci,,41.0448131,21.4387026
Езерански Манастир,,Ресен,,monastery,,,,,Monastery of Ezerani,,41.0094171,21.0103766
Подмочански Манастир,,Ресен,,monastery,,,,,Monastery of Podmochani,,41.0374119,21.0742597
Стипонски Манастир,,Ресен,,monastery,,,,,Monastery of Stipona,,41.0553417,20.9615458
Куршумли-ан,,Скопје,,museum,,,,,,,42.0031164,21.4370445
Смолевски Манастир,,Битола,,monastery,,,,,Monastery of Smolevo,,41.00838,21.3185968
Грнчарски Манастир,,Ресен,,monastery,,,,,Monastery of Grnchari,,41.0111621,21.0807151
Јанковечки Манастир,,Ресен,,monastery,,,,,Monastery of Jankovec,,41.1105239,21.0021335
Штрбовски Манастир,,Ресен,,monastery,,,,,Monastery of Shtrbovo,,40.9340324,21.1208725
Курбиновски манастир,,Ресен,,monastery,,,,,Monastery of Kurbinovo,,40.9861486,21.0848442
Зрзески Манастир,,Македонски Брод,,monastery,,,,,Monastery of Zrze,,41.5212022,21.3414252
Малоилински манастир,,Демир Хисар,,monastery,,,,,Monastery of Malo Ilino,,41.2932219,20.9804411
Стар Селечки Манастир,,Прилеп,,monastery,,,,,Old Monastery of Selce,,41.325515,21.5937551
Болненски Манастир,,Ресен,,monastery,,,,,Monastery of Bolno,,41.0890924,20.9880701
Прилепечки Манастир,,Прилеп,,monastery,,,,,Monastery of Prilepec,,41.2902067,21.5966952
Довлеџички Манастир,,Битола,,monastery,,,,,Monastery of Dovledzhik,,41.0358619,21.3022403
Брајчински Манастир,,Битола,,monastery,,,,,Monastery of Brajchino,,40.9054146,21.1683458
Државен архив на Северна Македонија,,Скопје,,library,,,,,State Archives of North Macedonia,,41.9968185,21.4343486
Градска Библиотека Илинден,,Делчево,,library,,,,,City Library Ilinden,,41.9663875,22.772984
Вардарски Рид,,Гевгелија,,archaeological_site,,,,,Vardar Hill,,41.1485732,22.5217936
Цареви Кули,,Струмица,,archaeological_site,,,,,Czar’s Towers,,41.4324514,22.6300225
11 Октомври 1941,,Прилеп,,museum,,,,,"October the 11th, 1941",,41.345014,21.5523595
Илјада книги,,Скопје,,library,,,,,,,41.9946963,21.4354639
Другарче,,Скопје,,library,,,,,Drugarche,,42.0036192,21.4004515
Римска цистерна,,Ресен,,archaeological_site,,,,,Roman Cistern,,40.8681483,20.9904397
Стара базилика,,Ресен,,archaeological_site,,,,,Old Basilica,,40.8670435,20.9887439
Спомен Костурница,,Велес,,museum,,,,,Kosturnica Memorial,,41.7233006,21.7894869
Тане Георгиевски,,Куманово,,library,,,,,,Mo-Fr 07:00-19:00; Sa 07:00-15:00,42.1339256,21.7189594
Магаза,,Битола,,museum,,,,,Magaza gallery,,41.0299321,21.3351247
Библиотека „Браќа Миладиновци“,,Скопје,,library,,,,,"Library ""Miladinovci Brothers""",,41.9997022,21.4202484
Браќа Миладиновци,,Скопје,Виа Игнација,library,,,,,,,42.0064775,21.3614728
Библиотека Феткин,,Кавадарци,,library,,,,,Fetkin Library,,41.4340077,22.0124363
Хераклеа Линкестис,,Битола,,archaeological_site,,,,,Heraclea Lyncestis,,41.011111,21.3423417
Антички театар,,Охрид,,archaeological_site,,,,,Ancient Theatre,,41.1146399,20.7938144
Спомен куќа на Страшо Пинџур,,Кавадарци,,memorial_house,,,,,Memorial house - Strasho Pindjur,,41.4184594,22.0181317
Спомен куќа на Христо Узунов,,Охрид,,memorial_house,,,,,Memorial house of Hristo Uzunov,,41.112242,20.7958365
Скупи,,Скопје,,archaeological_site,,,,,Scupi,,42.0165648,21.3925592
Голема Пеш,,Гостивар,,archaeological_site,,,,,Golema Pesht,,41.8117124,21.1617392
Музеј Крклино,http://www.muzejkrklino.mk/en/,Битола,,museum,,,,,"Auto and etno museum ""Filip""",,41.0748026,21.3299172
Музеј Галерија Кавадарци,,Кавадарци,,museum,,,,,Muzej Galerija Kavadarci,,41.4343634,22.0163228
Давина Кула,,Скопје,,archaeological_site,,,,,Davina Kula,,42.0843452,21.3548716
Бањичко Кале,,Велес,,archaeological_site,,,,,Banjica Fortress,,41.6952366,21.628172
Калата,,Македонска Каменица,,archaeological_site,,,,,Kalata,,41.9856377,22.5905605
Мачка камен,,Кратово,,archaeological_site,,,,,Macka kamen,,42.0853984,21.9627449
Кале,,Ресен,,archaeological_site,,,,,Kale,,41.0043725,20.9282003
Плаошник,,Охрид,,archaeological_site,,,,,Plaoshnik,,41.1128239,20.7908576
Isar-Marvinci,https://vici.org/vici/Idomenia,Валандово,,archaeological_site,,,,,,,41.2774735,22.4937195
Загорански Манастир,,Прилеп,,monastery,,,,,Monastery of Zagorani,,41.2582891,21.4232584
Тумба Маџари,,Скопје,,archaeological_site,,,,,Tumba Madzhari,,42.0014931,21.5054395
беранечки Манастир,,Битола,,monastery,,,,,Monastery of Beranci,,41.1553967,21.347533
Eтнолошки музеј,,Ресен,,museum,,,,,Ethnographic museum,,41.0240503,21.0506131
Девини Кули,,Македонски Брод,,archaeological_site,,,,,Devini Kuli,,41.5417536,21.2374131
Лешок,,Тетово,,archaeological_site,,,,,Leshok,,42.0675908,21.0260841
1. Бригада,,Дебар,,museum,,,,,1 Бригада,,41.3659738,20.6486358
Битолски Манастир,,Битола,,monastery,,,,,Monastery of Bitola,,41.0430399,21.3315251
Црнобучки Манастир,,Битола,,monastery,,,,,Monastery of Crnobuki,,41.1215636,21.3353846
Лознански Манастир,,Демир Хисар,,monastery,,,,,Monastery of Loznani,,41.202011,21.4003692
Кула,,Македонски Брод,,archaeological_site,,,,,Kula,,41.5070505,21.2735584
Пелагон,,Прилеп,,archaeological_site,,,,,Pelagon,,41.207884,21.6162431
Старо Бонче,,Прилеп,,archaeological_site,,,,,Staro Bonche,,41.2066672,21.5883917
Дељадровечки манастир,,Куманово,,monastery,,,,,Monastery of Deljadrovci,,42.0237335,21.6774932
Бабо,,Прилеп,,archaeological_site,,,,,Babo,,41.1967792,21.652119
Bay of Bones Museum,http://muzejohrid.mk/en/bay-of-bones-ohrid,Охрид,,museum,,,,,,,40.9942972,20.7983138
Градиште,,Демир Хисар,,archaeological_site,,,,,Gradishte,,41.2409433,21.2184749
Стибера,,Демир Хисар,,archaeological_site,,,,,Stibera,,41.243788,21.3975268
Трескавец,,Прилеп,,archaeological_site,,,,,Treskavec,,41.4053138,21.5376682
Музеј на икони,https://www.muzejprilep.org.mk/,Прилеп,,museum,,,,,,,41.3439193,21.558677
Бегов амам,,Тетово,,museum,,,,,Bey's Hamam,,42.0062618,20.9673497
Рајчки Манастир,,Дебар,,monastery,,,,,Monastery of Rajchica,,41.5147683,20.5490734
Гориче,,Демир Хисар,,archaeological_site,,,,,Goriche,,41.2380683,21.2008838
Пешта,,Прилеп,,archaeological_site,,,,,Peshta,,41.0881076,21.7443349
Градот / Маркови Кули,,Прилеп,,archaeological_site,,,,,Gradot / Markovi Kuli,,41.2061627,21.7183713
Беровчански Манастир,,Прилеп,,monastery,,,,,Monastery of Berovci,,41.2961983,21.4875646
Лавчански Манастир,,Ресен,,monastery,,,,,Monastery of Lavci,,41.0482813,20.9685195
Дуњски Манастир II,,Прилеп,,monastery,,,,,Monastery of Dunje II,,41.2203313,21.6861658
Долни Манастирец,,Македонски Брод,,monastery,,,,village,,,41.6156037,21.211982
Хотел Манастир,,Берово,,monastery,,,,,Manastir Hotel,,41.700628,22.8587642
Манастир Св. Архангел Михаил,,Берово,,monastery,,,,,Monastery,,41.701039,22.859018
Манастир Св. Андреј,,Скопје,,monastery,,,,,Monastery St. Andrej,,41.9505936,21.2991931
Горни Манастирец,,Македонски Брод,,monastery,,,,village,,,41.6248684,21.1885284
Манастир Св. Никола,,Демир Капија,,monastery,,,,,Monastery St. Nicholas,,41.3831513,22.2878614
Manastir Svetka Petka,,Скопје,,monastery,,,,,,,42.0594793,21.509645
Манастир Св. Богородица Елеуса,,Струмица,,monastery,,,,,Monastery of the Mother of God Eleusa,,41.4748537,22.5651714
Манастир Св. Леонтиј,,Струмица,,monastery,,,,,St. Leontius Monastery,,41.4505759,22.5902413
Manastir Sveti Ilija,,Велес,,monastery,,,,,Monastery of Saint Ellyah,,41.812649,21.6647825
Св.Петар и Павле манастирче,,Ресен,,monastery,,,,,St.Piter and Paul church,,41.0830455,21.0306352
Хотел Манастир Свети Стефан,,Охрид,,monastery,,,,,Hotel Monastery Sveti Stefan,,41.0737427,20.8042065
Манастирче,,Битола,,monastery,,,,,Manastirche,,41.1019788,21.5221046
Марков Манастир,,Скопје,,monastery,,,,,Marko's Monastery,,41.8933367,21.4023539
Манастир „Свети Наум“,,Охрид,,monastery,,,,,Monastery of Saint Naum,,40.9139505,20.7406423
Манастир Св. Јоаким Осоговски,,Крива Паланка,,monastery,,,,,Monastery of St. Joakim Osogovski,,42.208794,22.3623436
Манастирско паркиралиште,,Пробиштип,,monastery,,,,,Monastery Parking,,42.0125072,22.2268262
Лесновски манастир,,Пробиштип,,monastery,,,,,Lesnovo Monastery,,42.0132986,22.2284115
Манастир Св. Богородица,,Скопје,,monastery,,,,,St. Holy Mother of God Monastery,,42.1255318,21.4283099
Манастир Света Петка,,Охрид,,monastery,,,,,Saint Petka Monastery,,41.1291432,20.8400056
Црква „Св. Архангел Михаил“,,Тетово,,church,,,,,St. Michael the Archangel Church,,42.062585,21.1211964
Црква „Свети Никола“,,Свети Николе,,church,,,,,"Church ""Saint Nicholas""",,41.8662947,21.9423391
Стара Црква,,Прилеп,,church,,,,,Stara Crkva,,41.3436481,21.5583497
Црква Рождество на Пресв. Богородица,,Берово,,church,,,,,Nativity of the Theotokos Church,,41.706763,22.8570672
Црква Света Петка,,Охрид,,church,,,,,Saint Petka Church,,40.9131005,20.7415162
Црква Св. Ѓoрѓијa,,Охрид,,church,,,,,St. Gjorgjija Church,,41.1175675,20.813755
Црква „Св. Великомаченик Георгиј“,,Скопје,Ѓорѓи Капчев,church,,,,,,,41.9783403,21.496101
Црква „Св. Недела“ - Теново,,Гостивар,,church,,,,,,,41.8829405,20.9917833
Евагелистичка Методистичка Црква,,Скопје,,church,,,,,,,41.9964602,21.4236374
Црква „Св. Петар“,,Ресен,,church,,,,,St. Peter's Church,,40.8698069,20.9881982
Црква „Св. Димитриј“,,Ресен,,church,,,,,St. Demetrius,,40.8687081,20.9883511
Македонска православна црква – Охридска архиепископија,,Охрид,,church,,,,,Macedonian Orthodox Church – Ohrid Archbishopric,,41.1138878,20.7958716
"Пештерна Црква ""Св. Богородица"" - Калишта",,Струга,,church,,,,,"Cave Church ""Holy Mother of God"" - Kalishta",,41.144784,20.6501829
"Црква ""Пресвета Богородица""",,Гостивар,,church,,,,,"Church ""Тhe Blessed Mother of God""",,41.7931877,20.9110485
"Црква ""Свети Ѓорѓија""",,Гостивар,,church,,,,,"Church ""Saint George""",,41.792018,20.8780469
"Црква ""Свети Никола""",,Гостивар,,church,,,,,"""Saint Nicolas"" Church",,41.7581011,20.8788086
"Црква ""Св. Јован Крстител""",,Гостивар,,church,,,,,"""John the Baptist"" Church",,41.7333448,20.8284355
"Црква ""Св. Никола""",,Гостивар,,church,,,,,"""Saint Nicolas"" Church",,41.7219181,20.8445763
"Црква ""Св. Богородица""",,Гостивар,,church,,,,,"""Saint Mother of God"" Church",,41.7045474,20.8444402
Црква Св. Атанасиј,,Тетово,Маршал Тито,church,,,,,,,41.9662208,20.9814533
Црква Свети Никола - Геракомија,,Охрид,,church,,,,,Church of St. Nicholas - Gerakomija,,41.1123573,20.7948345
Црква „Св. Атанасиј“,,Тетово,,church,,,,,,,41.9054326,20.9624042
Црква „Св. Никола“,,Тетово,,church,,,,,,,41.8949135,20.9839342
Црква Св. Константин и Елена,,Скопје,,church,,,,,Church of St. Constantine and Helen,,41.9933752,21.430813
Тошев Манастир,,Крушево,,monastery,,,,,Toshe's Monastery,,41.4083235,21.2204305
Манастир Св. Илија,,Скопје,,monastery,,,,,Monastery of St. Elijah,,42.0855825,21.4098688
Манастир Добра Вода,,Кочани,,monastery,,,,,Monastery Dobra Voda,,41.9380352,22.4597043
Куќата на Мантови,,Прилеп,,archaeological_site,,,,,House of Mantov,,41.3553603,21.5404478
Манастир Раѓање на Пресвета Богородица,,Македонски Брод,,monastery,,,,,Monastery Birth of the Holly Mother,,41.6261597,21.1943195
Строшки Манастир / Стровјански Манастир,,Македонски Брод,,monastery,,,,,Monastery of Strovja,,41.5688988,21.4084321
Нов Селечки Манастир,,Прилеп,,monastery,,,,,New monastery of Selce,,41.3221933,21.5607907
Барешански Манастир,,Битола,,monastery,,,,,Monastery of Bareshani,,40.9522315,21.3505556
Бешиште-Манастир,,Прилеп,,monastery,,,,,Beshishte-Manastir,,41.1748959,21.7355858
Полчишки Манастир,,Прилеп,,monastery,,,,,Monastery of Polchishte,,41.1364736,21.8061421
Дуње-Манастир,,Прилеп,,monastery,,,,,Dunje-Manastir,,41.2074131,21.7002362
Присадски Манастир,,Прилеп,,monastery,,,,,Monastery of Prisad,,41.4286124,21.6203108
св. Тројица,,Скопје,,monastery,,,,,Sv. Trojitca,,42.1028018,21.3781601
Крушевица-Манастир,,Прилеп,,monastery,,,,,Krushevica-Manastir,,41.194657,21.6893066
Беловодички Манастир,,Прилеп,,monastery,,,,,Monastery of Belovodica,,41.3404219,21.6896482
Манастир-Полчиште,,Прилеп,,monastery,,,,,Manastir-Polchishte,,41.2050939,21.7238717
Пашинорувчански Манастир,,Прилеп,,monastery,,,,,Monastery of Pashino Ruvci,,41.2714521,21.3901052
Манастир-Чаниште,,Прилеп,,monastery,,,,,Manastir-Chanishte,,41.1711113,21.7067477
Браиловски Манастир,,Прилеп,,monastery,,,,,Monastery of Brailovo,,41.4669708,21.4620626
Бучински Манастир,,Демир Хисар,,monastery,,,,,Monastery of Buchin,,41.2743878,21.2922042
Манастир Св. Пантелејом,,Кочани,,monastery,,,,,Monastery St. Panteleimon,,41.9683426,22.3097693
Манастир Св. Архангели,,Скопје,,monastery,,,,,"Monastery St, Archangels",,42.1321849,21.4141076
Дуњски Манастир I,,Прилеп,,monastery,,,,,Monastery of Dunje I,,41.247224,21.6691195
Манастир Св. Христофор,,Битола,,monastery,,,,,Monastery St. Christopher,,40.9884145,21.3413763
Писокалски Манастир,,Прилеп,,monastery,,,,,Monastery of Pisokal,,41.2487073,21.6078445
Манастир „Свети Наум,,Охрид,,monastery,,,,,The Monastery of Saint Naum,,40.9138479,20.7406601
Крушевички Манастир,,Прилеп,,monastery,,,,,Monastery of Krushevica,,41.1975791,21.6702039
Манастир Св. Петка,,Штип,,monastery,,,,,Monastery St. Paraskevi,,41.7890727,22.3276385
Крушевски Манастир,,Крушево,,monastery,,,,,Monastery of Krushevo,,41.3568797,21.2659215
Манастир Карпино,,Кратово,,monastery,,,,,,,42.1770122,21.993118
Светотодорски Манастир,,Демир Хисар,,monastery,,,,,,,41.2211194,21.3290156
Mémorial de Bitola,,Битола,,museum,,,,,,,41.0410861,21.3586054
Goce Delchev Memorial House,,Битола,,museum,,,,,,,41.0268954,21.3322074
Црква св.Јован Крстител,,Виница,,church,,,,,,,41.8672643,22.481858
Црква „Св. Никола“ - Теново,,Тетово,,church,,,,,,,41.8948781,20.9840677
Оревоечки манастир,,Прилеп,,monastery,,,,,,,41.3665814,21.5983235
St. Giorgi Monastery,,Македонски Брод,,monastery,,,,,,,41.6347942,21.4024749
Старохристијанска базилика,,Ресен,,archaeological_site,,,,,,,40.868899,20.9907631
Римска Куќа,,Ресен,,archaeological_site,,,,,,,40.8685852,20.9909227
Римска куќа,,Ресен,,archaeological_site,,,,,,,40.8692875,20.990465
Ранохристијанска базилика,,Ресен,,archaeological_site,,,,,,,40.8692252,20.9910802
"Раскрсница - Бистра, Крушино, Кнежино Манастир",,Кичево,,monastery,,,,,,,41.5087306,20.920825
Манастирски Поток,,Прилеп,,monastery,,,,,,,41.3913343,21.5504264
Црква „Св. Григориј Палама и Димитриј“,,Струмица,,church,,,,,,,41.4368801,22.6441036
Бела Црква - Воѓани,,Крушево,,church,,,,,,,41.2849923,21.350523
Бела Црква - Обршани,,Крушево,,church,,,,,,,41.2758859,21.3566761
Isar / Idomenae,,Валандово,,archaeological_site,,,,,,,41.2775784,22.4937679
Д-р Никола Незлобински,,Струга,,museum,,,,,,,41.1805738,20.6776078
Протестантска црква,,Струмица,,church,,,,,,,41.4164588,22.7503838
Бела Црква - Пашино Рувци,,Демир Хисар,,church,,,,,,,41.2615529,21.3610561
Konjuh,,Кратово,,archaeological_site,,,,,,,42.1003011,21.9665342
Bargala,,Штип,,archaeological_site,,,,,,,41.7995125,22.289829
Roman Bathhouse,,Струмица,,archaeological_site,,,,,,,41.3825161,22.7542141
Museum of Galichnik's cultural heritage,,Дебар,,museum,,,,,,,41.5939237,20.652723
Бела Црква - Трновци,,Демир Хисар,,church,,,,,,,41.2514072,21.3625045
Бела Црква - Бучин,,Демир Хисар,,church,,,,,,,41.2736831,21.3361759
Museum Strumica,,Струмица,,museum,,,,,,,41.4354106,22.6364291
Vardarski Rid,,Гевгелија,,museum,,,,,,,41.1488082,22.5220207
House of Lambeski,,Охрид,,museum,,,,,,,41.1123275,20.7970433
Црква Св. Кузман и Дамјан - Триангла,,Скопје,,church,,,,,,,41.9987378,21.4924274
Црква „Св. Димитриј“ - Римска цистерна,,Ресен,,church,,,,,,,40.8690215,20.9898282
Македониум,,Крушево,,museum,,,,,,,41.377408,21.2483714
Црква „Рождество на Пресвета Богородица“ - Ново Лисиче,,Скопје,,church,,,,,,,41.9858681,21.4684081
Bilazora - Water Reservoir,,Свети Николе,,archaeological_site,,,,,,,41.8497337,21.9099884
Црквиште,,Тетово,,archaeological_site,,,,,,,42.156669,21.1838994
Црква Св. Петка,,Македонски Брод,,church,,,,,,,41.5618318,21.1908022
"Muzeu ""Dëshmorët e kombit""",,Куманово,,museum,,,,,,,42.1791177,21.620378
Народен Музеј,,Свети Николе,,museum,,,,,,,41.8650267,21.9419067
Ловен Дом,,Кочани,,museum,,,,,,,41.9151239,22.4137918
Црква Рождество на Пресвета Богородица и Света Петка,,Охрид,,church,,,,,,,41.1110018,20.7889594
"Archaeological site of Mancevci, Early Christian Basilica 5 AC",,Охрид,,archaeological_site,,,,,,,41.1128228,20.7934836
"Православна црква ""Свети Илија""",,Радовиш,,church,,,,,,,41.6444402,22.4565993
Црква Пресвета Богородица,,Скопје,,church,,,,,,,41.9963028,21.4405383
Church,,Струга,,church,,,,,,,41.3236049,20.7929425
Црква св. Jован,,Крива Паланка,,church,,,,,,,42.2903563,22.0423694
Св. Благовештение,,Охрид,,church,,,,,,,41.05924,20.8033957
Ss. Cyril and Methodius – Црква Св.Кирил и Методиј,,Гостивар,,church,,,,,,,41.7031608,20.7595909
Католичка црква,,Струмица,,church,,,,,,,41.4350382,22.6401158
Црква Св. Николе,,Гостивар,,church,,,,,,,41.6645167,20.7334014
Црква „Рождество на Пресвета Богородица“,,Скопје,,church,,,,,,,41.9769543,21.408415
Манастир Св. Петка с. Бродец,,Гостивар,,monastery,,,,,,,41.7638571,20.6723095
Geoglif Sv. Nikole,,Свети Николе,,archaeological_site,,,,,,,41.8291201,21.9566168
Музеј на НОВ,,Крушево,,museum,,,,,,,41.3756055,21.2457367
Roman & Ottoman Bathouse,,Струмица,,archaeological_site,,,,,,,41.382463,22.7538513
Црква Св. Никол,,Гостивар,,church,,,,,,,41.6936732,20.723677
Црква „Св. Димитриј“ - Стара базилика,,Ресен,,church,,,,,,,40.867842,20.9884912
Rimska crkva,,Скопје,,church,,,,,,,42.0586697,21.3527926
Црква „Св. Петар“ - Црква „Св. Димитриј“,,Ресен,,church,,,,,,,40.8692172,20.9884845
Пристаниште „Св. Петар“ - Црква „Св. Петар“,,Ресен,,church,,,,,,,40.870709,20.9882511
Патека до манастир Св. Ѓорѓи (Кнежино),,Кичево,,monastery,,,,,,,41.5123988,20.9223724
Манастир Св. Недела,,Струга,,monastery,,,,,,,41.2177834,20.6942012
Museum of Wine,,Демир Капија,,museum,,,,,,,41.4085959,22.2447656
Adventist Church,,Струмица,,church,,,,,,,41.3777779,22.8136094
Evangelic-Methodist Church,,Струмица,,church,,,,,,,41.3810101,22.8122003
Crkva Sv.Tripun,,Скопје,,church,,,,,,,42.0608563,21.3158452
Ел Калем,,Скопје,,museum,,,,,,,41.9869509,21.2876554
Антигона,,Неготино,,archaeological_site,,,,,,,41.503403,22.1002903
Црква Св. Ѓорги,,Богданци,,church,,,,,,,41.2194372,22.7063951
Евангелска црква Струга,,Струга,,church,,,,,,,41.1757351,20.6757298
Музеј Штип,,Штип,,museum,,,,,,,41.7366515,22.1897425
Безистен Штип,,Штип,,museum,,,,,,,41.7375479,22.1926992
Билазора,,Свети Николе,,archaeological_site,,,,,,,41.8471851,21.9124237
Кокино,,Куманово,,archaeological_site,,,,,,,42.2633818,21.953118
Музеј на Дојран,,Богданци,,museum,,,,,,,41.1871817,22.7221034
Гевгелиски манастир,,Гевгелија,,monastery,,,,,,,41.1391957,22.510763
Manastir Sveti Jovan,,Велес,,monastery,,,,,,,41.8286581,21.6894737
Манастирска пештера,,Скопје,,monastery,,,,,,,41.9610975,21.2961533
Станица “Музеј“,,Штип,,museum,,,,,,,41.7365081,22.1909377
Manastir Sveta Bogorodica,,Велес,,monastery,,,,,,,41.8289199,21.6864385
Музеј на Современа Уметност Т,,Скопје,,museum,,,,,,,42.0040991,21.4338483
Museum Teracotta,,Виница,,museum,,,,,,,41.8841902,22.5049622
Сулдуречки Манастир,,Радовиш,,monastery,,,,,,,41.5806571,22.4832063
Манастир Св. 40 Маченици,,Скопје,,monastery,,,,,,,42.0609829,21.3489729
Бистрички Манастир,,Битола,,monastery,,,,,,,40.9799697,21.3555821
Manastir Sv. Spas,,Кавадарци,,monastery,,,,,,,41.445737,21.9811109
Костоперска Карпа,,Куманово,,archaeological_site,,,,,,,42.1706665,21.809838
Црква „Преображение“,,Кочани,,church,,,,,,,41.914783,22.4255487
Црква Св. Теодор Тирон,,Тетово,,church,,,,,,,42.0513253,21.114665
Gradska Biblioteka,,Крива Паланка,,library,,,,,,,42.2055718,22.3361557
Чебренски Манастир,,Прилеп,,monastery,,,,,,,41.1327147,21.6799095
Манастир Св.Илија Петти Кладенци,,Кратово,,monastery,,,,,,,42.0559851,21.9893707
Манастир Св. Арханѓел Гаврил,,Скопје,,monastery,,,,,,,41.8850058,21.5837692
Ѓуришки Манастир,,Свети Николе,,monastery,,,,,,,41.9030359,21.8375887
Конгреси и Манастир,,Тетово,,monastery,,,,,,,42.0130517,20.9695193
Bus to St. Naum Monastery,,Охрид,,monastery,,,,,,,41.1161648,20.803939
Manastirche,,Македонски Брод,,monastery,,,,,,,41.52037,21.1211002
Manastir Svetog Ilije,,Охрид,,monastery,,,,,,,41.1334664,20.8473582
Манастир Св. Ѓорѓи,,Радовиш,,monastery,,,,,,,41.6453272,22.5091471
Пат за Манастир кон-Зелениково,,Скопје,,monastery,,,,,,,41.8859326,21.587666
Манастир „Св. Петка“ - Црешево,,Скопје,,monastery,,,,,,,42.0556357,21.5104602
манастир св.Илија - Снегово,,Битола,,monastery,,,,,,,41.0679251,21.309226
Света Недела,,Штип,,monastery,,,,,,,41.7503884,22.2211631
Матка - Манастир кон центар,,Скопје,,monastery,,,,,,,41.9609655,21.2962887
Манастир Св. 15 Маченици,,Струмица,,monastery,,,,,,,41.4300424,22.6409328
Св. Богородица Балаклија - манастир,,Делчево,,monastery,,,,,,,41.9659677,22.7595526
Manastir Sveta petka,,Ресен,,monastery,,,,,,,41.0518754,21.1673647
Пат за Манастир кон-Центар,,Скопје,,monastery,,,,,,,41.8861109,21.5877187
City Library,,Виница,,library,,,,,,,41.8840704,22.5047369
Манастир Св. Ѓорѓија,,Скопје,,monastery,,,,,,,42.0690911,21.3001786
Факултетска библиотека и компјутерница,,Скопје,,library,,,,,,,42.0029542,21.4587079
Библиотека “Гоце Делчев“,,Штип,,library,,,,,,,41.7358729,22.1946584
Спомен куќа Тоше Проески,,Крушево,,memorial_house,,,,,,,41.3744382,21.2462721
Голема Кула - Кучково,,Скопје,,archaeological_site,,,,,,,42.0587494,21.2786993
Мала Кула - Кучково,,Скопје,,archaeological_site,,,,,,,42.0585741,21.2844339
Gradiste kaj s.Brazda,,Скопје,,archaeological_site,,,,,,,42.0766913,21.398848
Лихнид,,Охрид,,archaeological_site,,,,,,,41.1155576,20.7914836
Евангелска Конгрешанска Црква,,Скопје,,church,,,,,,,41.9983498,21.4149028
Новоапостолска црква,,Скопје,,church,,,,,,,42.0035924,21.3873308
Црква Св. Варвара,,Струга,,church,,,,,,,41.2470654,20.5941789
Католичка Црква Св.Кирил и Методиј,,Богданци,,church,,,,,,,41.2014162,22.5778027
Max van der Stoel,,Тетово,,library,,,,,,,41.9867327,20.9599279
Манастир „Свети Димитрија“,,Велес,,monastery,,,,,,,41.7019073,21.7912101
Бели Мугри,,Велес,,library,,,,,,,41.7180637,21.7782985
Црква „Христос Спасител“,,Скопје,,church,,,,,,,42.007345,21.3916443
St. Dimitri's Church,,Битола,,church,,,,,,,40.9486199,21.59809
Православна црква „Света Троица“,,Скопје,,church,,,,,,,41.9920395,21.4643808
Григор Прличев,,Охрид,,library,,,,,,,41.1126552,20.8006399
Црква Св. Никола,,Тетово,,church,,,,,,,42.0456074,21.1380078
Црква Свети 40 Севастиски Маченици,,Охрид,,church,,,,,,,41.1130601,20.7941559
Црква Св. Никола Летен,,Гостивар,,church,,,,,,,41.6600947,20.7354855
